{"fetched_at":"2026-07-13T18:17:00.685Z","source":"https://celestrak.org/NORAD/elements/gp.php?NAME=ICEYE&FORMAT=JSON","constellation":"iceye","records":[{"OBJECT_NAME":"ICEYE-X2","OBJECT_ID":"2018-099AU","EPOCH":"2026-07-13T07:31:04.420704","CLASSIFICATION_TYPE":"U","MEAN_MOTION":15.18024548,"ECCENTRICITY":0.00096343,"INCLINATION":97.4348,"RA_OF_ASC_NODE":247.6966,"ARG_OF_PERICENTER":201.6638,"MEAN_ANOMALY":158.419,"EPHEMERIS_TYPE":0,"NORAD_CAT_ID":43800,"ELEMENT_SET_NO":999,"REV_AT_EPOCH":41678,"BSTAR":0.000092889243,"MEAN_MOTION_DOT":0.00001824,"MEAN_MOTION_DDOT":0},{"OBJECT_NAME":"ICEYE-X4","OBJECT_ID":"2019-038D","EPOCH":"2026-07-13T07:12:09.973152","CLASSIFICATION_TYPE":"U","MEAN_MOTION":15.29855238,"ECCENTRICITY":0.00126859,"INCLINATION":97.8749,"RA_OF_ASC_NODE":228.7566,"ARG_OF_PERICENTER":204.8656,"MEAN_ANOMALY":155.1973,"EPHEMERIS_TYPE":0,"NORAD_CAT_ID":44390,"ELEMENT_SET_NO":999,"REV_AT_EPOCH":38579,"BSTAR":0.0002510386,"MEAN_MOTION_DOT":0.0000719,"MEAN_MOTION_DDOT":0},{"OBJECT_NAME":"ICEYE-X7","OBJECT_ID":"2020-068L","EPOCH":"2026-07-13T06:30:47.398752","CLASSIFICATION_TYPE":"U","MEAN_MOTION":15.32071262,"ECCENTRICITY":0.00058306,"INCLINATION":97.7501,"RA_OF_ASC_NODE":161.9953,"ARG_OF_PERICENTER":221.1473,"MEAN_ANOMALY":138.9328,"EPHEMERIS_TYPE":0,"NORAD_CAT_ID":46496,"ELEMENT_SET_NO":999,"REV_AT_EPOCH":31878,"BSTAR":0.00022240875,"MEAN_MOTION_DOT":0.00006805,"MEAN_MOTION_DDOT":0},{"OBJECT_NAME":"ICEYE-X6","OBJECT_ID":"2020-068M","EPOCH":"2026-07-13T06:15:53.839584","CLASSIFICATION_TYPE":"U","MEAN_MOTION":15.04660269,"ECCENTRICITY":0.00073996,"INCLINATION":98.0986,"RA_OF_ASC_NODE":189.182,"ARG_OF_PERICENTER":15.8239,"MEAN_ANOMALY":344.3215,"EPHEMERIS_TYPE":0,"NORAD_CAT_ID":46497,"ELEMENT_SET_NO":999,"REV_AT_EPOCH":31715,"BSTAR":0.00014185298,"MEAN_MOTION_DOT":0.00001927,"MEAN_MOTION_DDOT":0},{"OBJECT_NAME":"ICEYE-X21","OBJECT_ID":"2023-001AS","EPOCH":"2026-06-24T05:11:18.420288","CLASSIFICATION_TYPE":"U","MEAN_MOTION":16.24069885,"ECCENTRICITY":0.00123774,"INCLINATION":97.3001,"RA_OF_ASC_NODE":262.6152,"ARG_OF_PERICENTER":285.9702,"MEAN_ANOMALY":74.0225,"EPHEMERIS_TYPE":0,"NORAD_CAT_ID":55049,"ELEMENT_SET_NO":999,"REV_AT_EPOCH":19475,"BSTAR":0.000602142,"MEAN_MOTION_DOT":0.01585954,"MEAN_MOTION_DDOT":0.000002396838},{"OBJECT_NAME":"ICEYE-X25","OBJECT_ID":"2023-084AH","EPOCH":"2026-07-13T07:57:30.176928","CLASSIFICATION_TYPE":"U","MEAN_MOTION":15.62705411,"ECCENTRICITY":0.0004198,"INCLINATION":97.5903,"RA_OF_ASC_NODE":342.4318,"ARG_OF_PERICENTER":191.3201,"MEAN_ANOMALY":168.7963,"EPHEMERIS_TYPE":0,"NORAD_CAT_ID":56963,"ELEMENT_SET_NO":999,"REV_AT_EPOCH":17205,"BSTAR":0.00037644284,"MEAN_MOTION_DOT":0.00033712,"MEAN_MOTION_DDOT":0},{"OBJECT_NAME":"ICEYE-X31","OBJECT_ID":"2023-174AJ","EPOCH":"2026-07-13T06:46:06.667104","CLASSIFICATION_TYPE":"U","MEAN_MOTION":15.35136891,"ECCENTRICITY":0.00025377,"INCLINATION":97.378,"RA_OF_ASC_NODE":270.0281,"ARG_OF_PERICENTER":191.8018,"MEAN_ANOMALY":168.3166,"EPHEMERIS_TYPE":0,"NORAD_CAT_ID":58288,"ELEMENT_SET_NO":999,"REV_AT_EPOCH":14875,"BSTAR":0.00031172363,"MEAN_MOTION_DOT":0.00010554,"MEAN_MOTION_DDOT":0},{"OBJECT_NAME":"ICEYE-X34","OBJECT_ID":"2023-174AQ","EPOCH":"2026-07-12T18:33:35.220384","CLASSIFICATION_TYPE":"U","MEAN_MOTION":15.70741927,"ECCENTRICITY":0.00015402,"INCLINATION":97.3863,"RA_OF_ASC_NODE":286.2997,"ARG_OF_PERICENTER":210.0049,"MEAN_ANOMALY":150.1125,"EPHEMERIS_TYPE":0,"NORAD_CAT_ID":58294,"ELEMENT_SET_NO":999,"REV_AT_EPOCH":14975,"BSTAR":0.0011404209,"MEAN_MOTION_DOT":0.00143164,"MEAN_MOTION_DDOT":0},{"OBJECT_NAME":"ICEYE-X35","OBJECT_ID":"2023-174AY","EPOCH":"2026-07-13T07:47:21.813792","CLASSIFICATION_TYPE":"U","MEAN_MOTION":15.55019169,"ECCENTRICITY":0.00079857,"INCLINATION":97.3792,"RA_OF_ASC_NODE":279.6639,"ARG_OF_PERICENTER":113.8642,"MEAN_ANOMALY":246.345,"EPHEMERIS_TYPE":0,"NORAD_CAT_ID":58302,"ELEMENT_SET_NO":999,"REV_AT_EPOCH":14940,"BSTAR":0.00052706271,"MEAN_MOTION_DOT":0.00035407,"MEAN_MOTION_DDOT":0},{"OBJECT_NAME":"ICEYE-X38","OBJECT_ID":"2024-043C","EPOCH":"2026-07-13T07:22:57.484128","CLASSIFICATION_TYPE":"U","MEAN_MOTION":15.13081156,"ECCENTRICITY":0.00025342,"INCLINATION":97.8429,"RA_OF_ASC_NODE":338.7809,"ARG_OF_PERICENTER":26.62,"MEAN_ANOMALY":333.516,"EPHEMERIS_TYPE":0,"NORAD_CAT_ID":59100,"ELEMENT_SET_NO":999,"REV_AT_EPOCH":11562,"BSTAR":0.00013621692,"MEAN_MOTION_DOT":0.0000234,"MEAN_MOTION_DDOT":0},{"OBJECT_NAME":"ICEYE-X37","OBJECT_ID":"2024-043E","EPOCH":"2026-07-13T03:44:51.369504","CLASSIFICATION_TYPE":"U","MEAN_MOTION":15.06283969,"ECCENTRICITY":0.00137104,"INCLINATION":97.8334,"RA_OF_ASC_NODE":331.5717,"ARG_OF_PERICENTER":281.8513,"MEAN_ANOMALY":78.1176,"EPHEMERIS_TYPE":0,"NORAD_CAT_ID":59102,"ELEMENT_SET_NO":999,"REV_AT_EPOCH":12899,"BSTAR":0.00010210776,"MEAN_MOTION_DOT":0.00001436,"MEAN_MOTION_DDOT":0},{"OBJECT_NAME":"ICEYE-X36","OBJECT_ID":"2024-043F","EPOCH":"2026-07-13T05:04:09.357024","CLASSIFICATION_TYPE":"U","MEAN_MOTION":15.07222859,"ECCENTRICITY":0.0005205,"INCLINATION":97.8391,"RA_OF_ASC_NODE":332.7529,"ARG_OF_PERICENTER":222.1058,"MEAN_ANOMALY":137.9769,"EPHEMERIS_TYPE":0,"NORAD_CAT_ID":59103,"ELEMENT_SET_NO":999,"REV_AT_EPOCH":12906,"BSTAR":0.00017371613,"MEAN_MOTION_DOT":0.00002551,"MEAN_MOTION_DDOT":0},{"OBJECT_NAME":"ICEYE-X43","OBJECT_ID":"2024-149BZ","EPOCH":"2026-07-12T18:47:36.027168","CLASSIFICATION_TYPE":"U","MEAN_MOTION":14.99783872,"ECCENTRICITY":0.000657,"INCLINATION":97.6811,"RA_OF_ASC_NODE":270.4044,"ARG_OF_PERICENTER":357.7584,"MEAN_ANOMALY":2.3608,"EPHEMERIS_TYPE":0,"NORAD_CAT_ID":60539,"ELEMENT_SET_NO":999,"REV_AT_EPOCH":10395,"BSTAR":0.00010145677,"MEAN_MOTION_DOT":0.00001196,"MEAN_MOTION_DDOT":0},{"OBJECT_NAME":"ICEYE-X39","OBJECT_ID":"2024-149CG","EPOCH":"2026-07-12T18:14:29.228928","CLASSIFICATION_TYPE":"U","MEAN_MOTION":15.00062518,"ECCENTRICITY":0.0006992,"INCLINATION":97.6785,"RA_OF_ASC_NODE":270.4379,"ARG_OF_PERICENTER":53.3845,"MEAN_ANOMALY":306.802,"EPHEMERIS_TYPE":0,"NORAD_CAT_ID":60546,"ELEMENT_SET_NO":999,"REV_AT_EPOCH":10395,"BSTAR":0.00020684348,"MEAN_MOTION_DOT":0.00002518,"MEAN_MOTION_DDOT":0},{"OBJECT_NAME":"ICEYE-X33","OBJECT_ID":"2024-149CJ","EPOCH":"2026-07-13T04:04:27.452352","CLASSIFICATION_TYPE":"U","MEAN_MOTION":15.00875982,"ECCENTRICITY":0.00020198,"INCLINATION":97.7342,"RA_OF_ASC_NODE":273.1806,"ARG_OF_PERICENTER":79.759,"MEAN_ANOMALY":280.3862,"EPHEMERIS_TYPE":0,"NORAD_CAT_ID":60548,"ELEMENT_SET_NO":999,"REV_AT_EPOCH":10410,"BSTAR":0.00022290095,"MEAN_MOTION_DOT":0.00002776,"MEAN_MOTION_DDOT":0}]}
