ICEYE-X2                
1 43800U 18099AU  26194.31324561  .00001824  00000+0  92889-4 0  9993
2 43800  97.4348 247.6966 0009634 201.6638 158.4190 15.18024548416782
ICEYE-X4                
1 44390U 19038D   26194.30011543  .00007190  00000+0  25104-3 0  9991
2 44390  97.8749 228.7566 0012685 204.8656 155.1973 15.29855238385796
ICEYE-X7                
1 46496U 20068L   26194.27138193  .00006805  00000+0  22241-3 0  9993
2 46496  97.7501 161.9953 0005830 221.1473 138.9328 15.32071262318780
ICEYE-X6                
1 46497U 20068M   26194.26103981  .00001927  00000+0  14185-3 0  9998
2 46497  98.0986 189.1820 0007399  15.8239 344.3215 15.04660269317155
ICEYE-X21               
1 55049U 23001AS  26175.21618542  .01585954  23968-5  60214-3 0  9995
2 55049  97.3001 262.6152 0012377 285.9702  74.0225 16.24069885194757
ICEYE-X25               
1 56963U 23084AH  26194.33159927  .00033712  00000+0  37644-3 0  9999
2 56963  97.5903 342.4318 0004198 191.3201 168.7963 15.62705411172055
ICEYE-X31               
1 58288U 23174AJ  26194.28202161  .00010554  00000+0  31172-3 0  9993
2 58288  97.3780 270.0281 0002537 191.8018 168.3166 15.35136891148750
ICEYE-X34               
1 58294U 23174AQ  26193.77332431  .00143164  00000+0  11404-2 0  9996
2 58294  97.3863 286.2997 0001540 210.0049 150.1125 15.70741927149759
ICEYE-X35               
1 58302U 23174AY  26194.32455803  .00035407  00000+0  52706-3 0  9998
2 58302  97.3792 279.6639 0007985 113.8642 246.3450 15.55019169149407
ICEYE-X38               
1 59100U 24043C   26194.30760977  .00002340  00000+0  13622-3 0  9994
2 59100  97.8429 338.7809 0002534  26.6200 333.5160 15.13081156115621
ICEYE-X37               
1 59102U 24043E   26194.15615011  .00001436  00000+0  10211-3 0  9993
2 59102  97.8334 331.5717 0013710 281.8513  78.1176 15.06283969128998
ICEYE-X36               
1 59103U 24043F   26194.21121941  .00002551  00000+0  17372-3 0  9999
2 59103  97.8391 332.7529 0005205 222.1058 137.9769 15.07222859129061
ICEYE-X43               
1 60539U 24149BZ  26193.78305587  .00001196  00000+0  10146-3 0  9998
2 60539  97.6811 270.4044 0006570 357.7584   2.3608 14.99783872103950
ICEYE-X39               
1 60546U 24149CG  26193.76006052  .00002518  00000+0  20684-3 0  9996
2 60546  97.6785 270.4379 0006992  53.3845 306.8020 15.00062518103956
ICEYE-X33               
1 60548U 24149CJ  26194.16976218  .00002776  00000+0  22290-3 0  9994
2 60548  97.7342 273.1806 0002019  79.7590 280.3862 15.00875982104103
